0 COSMOS 970 DEB
1 10565U 77121G   13282.14002007  .00000125  00000-0  24479-3 0  5167
2 10565 065.8289 145.4750 0124941 310.3586 156.9204 13.63478074777191
0 COSMOS 970 DEB
1 10565U 77121G   13287.12314941  .00000164  00000-0  29079-3 0  5189
2 10565 065.8283 133.3977 0125122 308.1037 136.5837 13.63480470777874
0 COSMOS 970 DEB
1 10565U 77121G   13289.53016248  .00000148  00000-0  27224-3 0  5198
2 10565 065.8285 127.5639 0125201 307.0109 071.4141 13.63482486778204
0 COSMOS 970 DEB
1 10565U 77121G   13292.11152904  .00000195  00000-0  32793-3 0  5207
2 10565 065.8287 121.3071 0125285 305.8264 142.0909 13.63483737778553
0 COSMOS 970 DEB
1 10565U 77121G   13294.52020128  .00000220  00000-0  35838-3 0  5219
2 10565 065.8289 115.4691 0125417 304.7329 085.0937 13.63485023778887
